ORBCOMM FM114           
1 41179U 15081A   24184.54855155  .00001502  00000+0  36946-3 0  9992
2 41179  47.0022 136.5777 0001200 210.4366 149.6449 14.56805348453463
ORBCOMM FM110           
1 41182U 15081D   24184.59463160  .00001495  00000+0  36815-3 0  9998
2 41182  47.0010 135.7671 0002259 345.2929  14.7890 14.56768578453347
ORBCOMM FM118           
1 41183U 15081E   24184.57244786  .00001220  00000+0  30728-3 0  9991
2 41183  47.0034 136.1936 0002484 343.7764  16.3041 14.56781274453448
ORBCOMM FM112           
1 41184U 15081F   24184.63532532  .00001648  00000+0  40268-3 0  9992
2 41184  46.9997  44.5819 0001931 226.8353 133.2370 14.56691991454674
ORBCOMM FM113           
1 41185U 15081G   24184.61259403  .00001620  00000+0  39649-3 0  9995
2 41185  47.0013  44.9650 0001683 241.4904 118.5811 14.56690796454658
ORBCOMM FM115           
1 41186U 15081H   24184.57558409  .00001194  00000+0  27706-3 0  9996
2 41186  46.9984 260.3803 0001769 268.3154  91.7530 14.60851519456624
ORBCOMM FM108           
1 41187U 15081J   24184.63561585  .00001741  00000+0  42329-3 0  9999
2 41187  47.0052 316.0809 0002195 172.6359 187.4558 14.56690552455801
ORBCOMM FM117           
1 41188U 15081K   24184.53282864  .00001757  00000+0  42678-3 0  9993
2 41188  47.0013 315.4403 0003008 177.8462 182.2436 14.56691798455832
ORBCOMM FM116           
1 41189U 15081L   24184.59044969  .00001665  00000+0  40642-3 0  9999
2 41189  47.0025  44.9889 0002436 243.3265 116.7370 14.56704198454659
EXPRESS-AMU1            
1 41191U 15082A   24184.54808017  .00000157  00000+0  00000+0 0  9995
2 41191   0.0241  74.2050 0002445  32.1571  48.1052  1.00273628 31101
GAOFEN-4                
1 41194U 15083A   24184.61712056 -.00000333  00000+0  00000+0 0  9991
2 41194   0.0923 256.0343 0001307 198.6707 154.2577  1.00271311 31367
BELINTERSAT-1           
1 41238U 16001A   24184.55112595  .00000108  00000+0  00000+0 0  9995
2 41238   0.0321  88.6805 0001641 312.3403 129.9278  1.00272074 31071
JASON-3                 
1 41240U 16002A   24184.56987074 -.00000035  00000+0  11161-3 0  9996
2 41240  66.0393 179.3914 0008529 269.8614  90.1424 12.80928796395474
IRNSS-1E                
1 41241U 16003A   24184.61834978 -.00000326  00000+0  00000+0 0  9997
2 41241  31.6654  73.2497 0018753 180.5840   1.5979  1.00267830 30912
EUTELSAT 9B             
1 41310U 16005A   24184.54269331  .00000063  00000+0  00000+0 0  9990
2 41310   0.0384  60.3959 0001066  60.9664   4.0359  1.00270725 30954
NAVSTAR 76 (USA 266)    
1 41328U 16007A   24182.40261501 -.00000004  00000+0  00000+0 0  9991
2 41328  55.1308 117.9259 0079900 238.9427 120.2505  2.00561152 61460
COSMOS 2514 [GLONASS-M] 
1 41330U 16008A   24184.13194095 -.00000076  00000+0  00000+0 0  9999
2 41330  65.4001 337.4365 0010269 200.3024 159.6529  2.13102555 65382
SENTINEL-3A             
1 41335U 16011A   24184.59305426  .00000246  00000+0  11975-3 0  9995
2 41335  98.6232 251.1801 0001377  93.8077 266.3261 14.26739718436162
HORYU-4                 
1 41340U 16012D   24184.53869781  .00012523  00000+0  61374-3 0  9994
2 41340  31.0015 235.5240 0010172 130.9915 229.1606 15.16859768460488
SES-9                   
1 41380U 16013A   24183.78166378 -.00000343  00000+0  00000+0 0  9990
2 41380   0.0328 296.6008 0002223 156.4145 216.9810  1.00271932 30260
EUTELSAT 65 WEST A      
1 41382U 16014A   24184.55294774 -.00000274  00000+0  00000+0 0  9994
2 41382   0.0644 321.8566 0001846 137.2041 315.8476  1.00269306 30387
IRNSS-1F                
1 41384U 16015A   24184.54729696  .00000158  00000+0  00000+0 0  9992
2 41384   3.6058 117.1983 0018013 183.3612 209.9540  1.00270287 30505
COSMOS 2515             
1 41394U 16020A   24184.51984376  .00002088  00000+0  15863-3 0  9995
2 41394  97.9436 164.8680 0025620 189.4513 170.6233 15.03098578452852
BEIDOU-2 IGSO-6         
1 41434U 16021A   24184.41117090 -.00000173  00000+0  00000+0 0  9998
2 41434  59.1993  45.1911 0047691 222.1066 257.0962  1.00267824 30319
IRNSS-1G                
1 41469U 16027A   24184.62488104 -.00000336  00000+0  00000+0 0  9993
2 41469   3.4768 118.4189 0006808 337.9504 179.1603  1.00276392 30010
JCSAT-2B                
1 41471U 16028A   24184.62296764 -.00000164  00000+0  00000+0 0  9995
2 41471   0.0189  29.3987 0001038 107.2269 162.7743  1.00269702 29956
YAOGAN-30 01            
1 41473U 16029A   24184.62251606  .00001365  00000+0  20443-3 0  9994
2 41473  98.0060 234.4603 0014757  14.5206 345.6424 14.76222820438241
GSAT0211 (GALILEO 14)   
1 41549U 16030A   24183.16272527  .00000034  00000+0  00000+0 0  9998
2 41549  55.3581 241.3923 0002833 309.1416  50.9160  1.70473757 50463
GSAT0210 (GALILEO 13)   
1 41550U 16030B   24184.04059950  .00000038  00000+0  00000+0 0  9995
2 41550  55.3575 241.3690 0003090 263.9154  96.1363  1.70473957 50471
THAICOM 8               
1 41552U 16031A   24184.28035537 -.00000119  00000+0  00000+0 0  9990
2 41552   0.0511  26.3365 0002130  49.9475  23.9444  1.00271106 29550
ZIYUAN 3-2 (ZY 3-2)     
1 41556U 16033A   24184.54764993  .00010105  00000+0  45546-3 0  9993
2 41556  97.4561 259.7671 0001406 135.4731 224.6617 15.21231569449333
COSMOS 2517 (GEO-IK 2)  
1 41579U 16034A   24184.56960775  .00000056  00000+0  86519-4 0  9997
2 41579  99.2000 195.4994 0001557  81.2940 278.8392 13.85898025408641
INTELSAT 31 (IS-31)     
1 41581U 16035A   24179.87075527 -.00000147  00000+0  00000+0 0  9999
2 41581   0.0186  92.8897 0000805  89.1173 312.8514  1.00269258 29470
BEIDOU-2 G7             
1 41586U 16037A   24184.61844218 -.00000353  00000+0  00000+0 0  9994
2 41586   1.9437  69.8560 0008627   8.0104 176.3625  1.00266385 29620
ABS-2A (MONGOLSAT-1)    
1 41588U 16038A   24183.85952105 -.00000081  00000+0  00000+0 0  9995
2 41588   0.0126  46.2567 0001399   7.0991 251.1541  1.00268170 29538
EUTELSAT 117 WEST B     
1 41589U 16038B   24183.65896771 -.00000008  00000+0  00000+0 0  9999
2 41589   0.0082 155.2597 0000179 275.4043 329.7500  1.00269933 29498
BRISAT                  
1 41591U 16039A   24184.58382986 -.00000195  00000+0  00000+0 0  9991
2 41591   0.0197   3.9209 0001930 100.2492 177.6131  1.00269651 29448
ECHOSTAR 18             
1 41592U 16039B   24184.46160441 -.00000280  00000+0  00000+0 0  9994
2 41592   0.0034  97.8461 0001239   7.0743 280.8768  1.00271102 29454
CARTOSAT-2C             
1 41599U 16040A   24184.56759428  .00008164  00000+0  38966-3 0  9997
2 41599  97.4738 243.4673 0014333 107.1542 253.1263 15.19233193445216
SKYSAT-C1               
1 41601U 16040C   24184.41262303  .00011057  00000+0  38973-3 0  9999
2 41601  97.0618 244.0553 0002628 162.9563 197.1766 15.29431890448474
GHGSAT-D                
1 41602U 16040D   24184.60526029  .00039956  00000+0  46843-3 0  9992
2 41602  97.1004 223.0477 0001155   7.0373 353.0901 15.61414378447414
LAPAN-A3                
1 41603U 16040E   24184.59267810  .00004366  00000+0  17517-3 0  9994
2 41603  97.1413 197.6150 0013424  53.4625 306.7848 15.25401206445576
BIROS                   
1 41604U 16040F   24184.61228254  .00013261  00000+0  34604-3 0  9997
2 41604  97.1219 212.6357 0007979   4.7705 355.3616 15.38903299446559
M3MSAT                  
1 41605U 16040G   24184.55563853  .00016546  00000+0  43959-3 0  9990
2 41605  97.1213 209.7677 0008792  24.7592 335.4074 15.38292978446367
MUOS-5                  
1 41622U 16041A   24184.40535351 -.00000134  00000+0  00000+0 0  9999
2 41622   3.8432 296.9005 0196207 252.1108 132.7654  1.00271214 29920
SJ 16-02                
1 41634U 16043A   24184.56958732  .00001668  00000+0  17850-3 0  9990
2 41634  74.9995 188.0798 0008753 327.8986  32.1666 14.89362355434584
TIANTONG-1 1            
1 41725U 16048A   24184.59198465 -.00000319  00000+0  00000+0 0  9996
2 41725   2.6537  30.1328 0002717  29.2984 176.1953  1.00271728 29104
GAOFEN-3                
1 41727U 16049A   24184.55870624  .00000152  00000+0  59428-4 0  9996
2 41727  98.4041 191.9962 0001252  98.7313 261.4019 14.42220276415640
JCSAT-16                
1 41729U 16050A   24184.61364619 -.00000250  00000+0  00000+0 0  9996
2 41729   0.0191  27.0211 0001836  82.4446 176.5052  1.00271074 28902
QSS (MOZI)              
1 41731U 16051A   24184.60433889  .00009716  00000+0  26036-3 0  9991
2 41731  97.3092  96.4631 0010507 157.6657 202.5048 15.38148027439069
USA 270                 
1 41744U 16052A   24184.27868900 -.00000360  00000+0  00000+0 0  9991
2 41744   2.3555  86.3447 0000916 190.3052 225.1566  1.00129869 20960
USA 271                 
1 41745U 16052B   24184.40020501  .00000108  00000+0  00000+0 0  9993
2 41745   2.3307  86.3717 0000991  89.3017  94.2637  0.99807590 20759
INTELSAT 36 (IS-36)     
1 41747U 16053A   24184.28035537 -.00000022  00000+0  00000+0 0  9993
2 41747   0.0097  10.0405 0002526 352.3394  87.8373  1.00270761 28780
INTELSAT 33E (IS-33E)   
1 41748U 16053B   24184.55286640  .00000051  00000+0  00000+0 0  9998
2 41748   0.0130  54.6905 0001588  25.1389 100.2588  1.00270025 29089
INSAT-3DR               
1 41752U 16054A   24183.72132729 -.00000074  00000+0  00000+0 0  9996
2 41752   0.1392  93.1237 0010482 173.9545 346.8432  1.00271530 28649
PERUSAT 1               
1 41770U 16058A   24184.54516477  .00000729  00000+0  16665-3 0  9991
2 41770  98.1763 257.3156 0001443  93.8763 266.2602 14.58520608414925
SKYSAT-C4               
1 41771U 16058B   24184.09883819  .00013565  00000+0  40684-3 0  9999
2 41771  97.0090 230.8925 0004380 119.0043 241.1641 15.34570366435505
SKYSAT-C5               
1 41772U 16058C   24184.57934328  .00013281  00000+0  40412-3 0  9999
2 41772  97.1577 239.3857 0002905  66.0188 294.1359 15.34127935434050
SKYSAT-C2               
1 41773U 16058D   24184.59161604  .00011183  00000+0  39407-3 0  9992
2 41773  97.0116 230.0540 0004096 130.4627 229.6972 15.29430951435473
SKYSAT-C3               
1 41774U 16058E   24184.59152344  .00017661  00000+0  42518-3 0  9998
2 41774  97.0105 237.9362 0005036 123.1424 237.0307 15.41316382436010
